start=new Date('2021-09-17T00:00:00.000Z').valueOf();
sats=[{"SEMIMAJOR_AXIS":"6925.375","GP_ID":"184852578","MEAN_MOTION":"15.06391463","COUNTRY_CODE":"US","PERIOD":"95.593","OBJECT_ID":"2021-036BC","MEAN_MOTION_DDOT":"0.0000000000000","MEAN_ELEMENT_THEORY":"SGP4","RCS_SIZE":"LARGE","TLE_LINE2":"2 48326  53.0542 241.6142 0001256  50.3017 309.8082 15.06391463 21599","LAUNCH_DATE":"2021-04-29","CLASSIFICATION_TYPE":"U","ARG_OF_PERICENTER":"50.3017","OBJECT_TYPE":"PAYLOAD","OBJECT_NAME":"STARLINK-2498","RA_OF_ASC_NODE":"241.6142","SITE":"AFETR","REF_FRAME":"TEME","APOAPSIS":"548.110","TLE_LINE1":"1 48326U 21036BC  21259.64301425  .00000785  00000-0  71578-4 0  9991","MEAN_ANOMALY":"309.8082","PERIAPSIS":"546.370","FILE":"3117438","CENTER_NAME":"EARTH","BSTAR":"0.00007157800000","EPHEMERIS_TYPE":"0","DECAY_DATE":null,"INCLINATION":"53.0542","REV_AT_EPOCH":"2159","MEAN_MOTION_DOT":"0.00000785","NORAD_CAT_ID":"48326","TIME_SYSTEM":"UTC","ECCENTRICITY":"0.00012560","EPOCH":"2021-09-16T15:25:56.431200","ELEMENT_SET_NO":"999"},{"REV_AT_EPOCH":"2155","DECAY_DATE":null,"INCLINATION":"53.0543","EPHEMERIS_TYPE":"0","MEAN_MOTION_DOT":"-0.00000578","NORAD_CAT_ID":"48327","TIME_SYSTEM":"UTC","PERIAPSIS":"546.724","MEAN_ANOMALY":"278.7534","CENTER_NAME":"EARTH","FILE":"3117121","BSTAR":"-0.00001996600000","ECCENTRICITY":"0.00007150","EPOCH":"2021-09-16T08:58:28.046208","ELEMENT_SET_NO":"999","GP_ID":"184823122","COUNTRY_CODE":"US","MEAN_MOTION":"15.06398041","SEMIMAJOR_AXIS":"6925.355","OBJECT_TYPE":"PAYLOAD","ARG_OF_PERICENTER":"81.3536","OBJECT_NAME":"STARLINK-2502","RA_OF_ASC_NODE":"242.8215","APOAPSIS":"547.715","REF_FRAME":"TEME","SITE":"AFETR","TLE_LINE1":"1 48327U 21036BD  21259.37393572 -.00000578  00000-0 -19966-4 0  9991","MEAN_MOTION_DDOT":"0.0000000000000","OBJECT_ID":"2021-036BD","PERIOD":"95.592","RCS_SIZE":"LARGE","MEAN_ELEMENT_THEORY":"SGP4","LAUNCH_DATE":"2021-04-29","TLE_LINE2":"2 48327  53.0543 242.8215 0000715  81.3536 278.7534 15.06398041 21555","CLASSIFICATION_TYPE":"U"},{"OBJECT_TYPE":"PAYLOAD","OBJECT_NAME":"STARLINK-2504","ARG_OF_PERICENTER":"54.5937","RA_OF_ASC_NODE":"242.8392","APOAPSIS":"548.033","SITE":"AFETR","REF_FRAME":"TEME","TLE_LINE1":"1 48328U 21036BE  21259.37024521  .00001574  00000-0  12449-3 0  9990","MEAN_MOTION_DDOT":"0.0000000000000","OBJECT_ID":"2021-036BE","PERIOD":"95.592","MEAN_ELEMENT_THEORY":"SGP4","RCS_SIZE":"LARGE","TLE_LINE2":"2 48328  53.0542 242.8392 0001210  54.5937 305.5165 15.06406062 21551","LAUNCH_DATE":"2021-04-29","CLASSIFICATION_TYPE":"U","GP_ID":"184821371","COUNTRY_CODE":"US","MEAN_MOTION":"15.06406062","SEMIMAJOR_AXIS":"6925.330","EPOCH":"2021-09-16T08:53:09.186144","ECCENTRICITY":"0.00012100","ELEMENT_SET_NO":"999","REV_AT_EPOCH":"2155","EPHEMERIS_TYPE":"0","DECAY_DATE":null,"INCLINATION":"53.0542","MEAN_MOTION_DOT":"0.00001574","NORAD_CAT_ID":"48328","TIME_SYSTEM":"UTC","PERIAPSIS":"546.357","MEAN_ANOMALY":"305.5165","CENTER_NAME":"EARTH","FILE":"3117121","BSTAR":"0.00012449000000"},{"MEAN_ANOMALY":"301.1486","PERIAPSIS":"546.258","BSTAR":"0.00009065100000","FILE":"3117121","CENTER_NAME":"EARTH","MEAN_MOTION_DOT":"0.00001069","DECAY_DATE":null,"EPHEMERIS_TYPE":"0","INCLINATION":"53.0548","REV_AT_EPOCH":"2155","TIME_SYSTEM":"UTC","NORAD_CAT_ID":"48329","ECCENTRICITY":"0.00013760","EPOCH":"2021-09-16T08:47:51.268704","ELEMENT_SET_NO":"999","SEMIMAJOR_AXIS":"6925.346","GP_ID":"184821621","COUNTRY_CODE":"US","MEAN_MOTION":"15.06400948","MEAN_ELEMENT_THEORY":"SGP4","RCS_SIZE":"LARGE","PERIOD":"95.592","MEAN_MOTION_DDOT":"0.0000000000000","OBJECT_ID":"2021-036BF","CLASSIFICATION_TYPE":"U","TLE_LINE2":"2 48329  53.0548 242.8588 0001376  58.9638 301.1486 15.06400948 21559","LAUNCH_DATE":"2021-04-29","RA_OF_ASC_NODE":"242.8588","OBJECT_TYPE":"PAYLOAD","ARG_OF_PERICENTER":"58.9638","OBJECT_NAME":"STARLINK-2510","TLE_LINE1":"1 48329U 21036BF  21259.36656561  .00001069  00000-0  90651-4 0  9996","REF_FRAME":"TEME","SITE":"AFETR","APOAPSIS":"548.164"},{"ECCENTRICITY":"0.00009810","EPOCH":"2021-09-16T08:42:32.892480","ELEMENT_SET_NO":"999","MEAN_MOTION_DOT":"-0.00000246","REV_AT_EPOCH":"2155","DECAY_DATE":null,"EPHEMERIS_TYPE":"0","INCLINATION":"53.0552","TIME_SYSTEM":"UTC","NORAD_CAT_ID":"48330","PERIAPSIS":"546.551","MEAN_ANOMALY":"303.0315","BSTAR":"0.00000234490000","CENTER_NAME":"EARTH","FILE":"3117121","RA_OF_ASC_NODE":"242.8794","ARG_OF_PERICENTER":"57.0768","OBJECT_TYPE":"PAYLOAD","OBJECT_NAME":"STARLINK-2501","TLE_LINE1":"1 48330U 21036BG  21259.36288070 -.00000246  00000-0  23449-5 0  9993","APOAPSIS":"547.910","REF_FRAME":"TEME","SITE":"AFETR","RCS_SIZE":"LARGE","MEAN_ELEMENT_THEORY":"SGP4","MEAN_MOTION_DDOT":"0.0000000000000","OBJECT_ID":"2021-036BG","PERIOD":"95.592","CLASSIFICATION_TYPE":"U","LAUNCH_DATE":"2021-04-29","TLE_LINE2":"2 48330  53.0552 242.8794 0000981  57.0768 303.0315 15.06394448 21559","GP_ID":"184822872","MEAN_MOTION":"15.06394448","COUNTRY_CODE":"US","SEMIMAJOR_AXIS":"6925.366"},{"SEMIMAJOR_AXIS":"6925.357","COUNTRY_CODE":"US","MEAN_MOTION":"15.06397146","GP_ID":"184852824","LAUNCH_DATE":"2021-04-29","TLE_LINE2":"2 48331  53.0548 241.4027 0001079  57.3767 302.7326 15.06397146 21602","CLASSIFICATION_TYPE":"U","OBJECT_ID":"2021-036BH","MEAN_MOTION_DDOT":"0.0000000000000","PERIOD":"95.592","MEAN_ELEMENT_THEORY":"SGP4","RCS_SIZE":"LARGE","APOAPSIS":"547.970","SITE":"AFETR","REF_FRAME":"TEME","TLE_LINE1":"1 48331U 21036BH  21259.69093530  .00001290  00000-0  10549-3 0  9999","OBJECT_NAME":"STARLINK-2514","OBJECT_TYPE":"PAYLOAD","ARG_OF_PERICENTER":"57.3767","RA_OF_ASC_NODE":"241.4027","CENTER_NAME":"EARTH","FILE":"3117438","BSTAR":"0.00010549000000","PERIAPSIS":"546.475","MEAN_ANOMALY":"302.7326","NORAD_CAT_ID":"48331","TIME_SYSTEM":"UTC","REV_AT_EPOCH":"2160","EPHEMERIS_TYPE":"0","DECAY_DATE":null,"INCLINATION":"53.0548","MEAN_MOTION_DOT":"0.00001290","ELEMENT_SET_NO":"999","ECCENTRICITY":"0.00010790","EPOCH":"2021-09-16T16:34:56.809920"},{"CLASSIFICATION_TYPE":"U","LAUNCH_DATE":"2021-04-29","TLE_LINE2":"2 48332  53.0555 240.2280 0001154  67.4028 292.7083 15.06401261 21641","MEAN_ELEMENT_THEORY":"SGP4","RCS_SIZE":"LARGE","PERIOD":"95.592","OBJECT_ID":"2021-036BJ","MEAN_MOTION_DDOT":"0.0000000000000","TLE_LINE1":"1 48332U 21036BJ  21259.95262268  .00000149  00000-0  28892-4 0  9998","REF_FRAME":"TEME","SITE":"AFETR","APOAPSIS":"548.009","RA_OF_ASC_NODE":"240.2280","OBJECT_NAME":"STARLINK-2511","OBJECT_TYPE":"PAYLOAD","ARG_OF_PERICENTER":"67.4028","SEMIMAJOR_AXIS":"6925.345","MEAN_MOTION":"15.06401261","COUNTRY_CODE":"US","GP_ID":"184852077","ELEMENT_SET_NO":"999","EPOCH":"2021-09-16T22:51:46.599552","ECCENTRICITY":"0.00011540","BSTAR":"0.00002889200000","FILE":"3117438","CENTER_NAME":"EARTH","MEAN_ANOMALY":"292.7083","PERIAPSIS":"546.411","TIME_SYSTEM":"UTC","NORAD_CAT_ID":"48332","MEAN_MOTION_DOT":"0.00000149","INCLINATION":"53.0555","DECAY_DATE":null,"EPHEMERIS_TYPE":"0","REV_AT_EPOCH":"2164"},{"OBJECT_TYPE":"PAYLOAD","ARG_OF_PERICENTER":"73.0427","OBJECT_NAME":"STARLINK-2518","RA_OF_ASC_NODE":"241.4440","APOAPSIS":"547.895","REF_FRAME":"TEME","SITE":"AFETR","TLE_LINE1":"1 48333U 21036BK  21259.68356437 -.00000143  00000-0  92877-5 0  9991","MEAN_MOTION_DDOT":"0.0000000000000","OBJECT_ID":"2021-036BK","PERIOD":"95.593","RCS_SIZE":"LARGE","MEAN_ELEMENT_THEORY":"SGP4","LAUNCH_DATE":"2021-04-29","TLE_LINE2":"2 48333  53.0570 241.4440 0000955  73.0427 287.0667 15.06393428 21600","CLASSIFICATION_TYPE":"U","GP_ID":"184852328","COUNTRY_CODE":"US","MEAN_MOTION":"15.06393428","SEMIMAJOR_AXIS":"6925.369","ECCENTRICITY":"0.00009550","EPOCH":"2021-09-16T16:24:19.961568","ELEMENT_SET_NO":"999","REV_AT_EPOCH":"2160","DECAY_DATE":null,"EPHEMERIS_TYPE":"0","INCLINATION":"53.0570","MEAN_MOTION_DOT":"-0.00000143","NORAD_CAT_ID":"48333","TIME_SYSTEM":"UTC","PERIAPSIS":"546.572","MEAN_ANOMALY":"287.0667","CENTER_NAME":"EARTH","FILE":"3117438","BSTAR":"0.00000928770000"},{"EPOCH":"2021-09-16T16:19:01.799616","ECCENTRICITY":"0.00009760","ELEMENT_SET_NO":"999","MEAN_MOTION_DOT":"0.00000811","REV_AT_EPOCH":"2160","EPHEMERIS_TYPE":"0","DECAY_DATE":null,"INCLINATION":"53.0595","TIME_SYSTEM":"UTC","NORAD_CAT_ID":"48334","PERIAPSIS":"546.558","MEAN_ANOMALY":"311.3249","BSTAR":"0.00007336600000","CENTER_NAME":"EARTH","FILE":"3117438","RA_OF_ASC_NODE":"241.4587","OBJECT_NAME":"STARLINK-2470","OBJECT_TYPE":"PAYLOAD","ARG_OF_PERICENTER":"48.7824","TLE_LINE1":"1 48334U 21036BL  21259.67988194  .00000811  00000-0  73366-4 0  9994","APOAPSIS":"547.910","SITE":"AFETR","REF_FRAME":"TEME","RCS_SIZE":"LARGE","MEAN_ELEMENT_THEORY":"SGP4","OBJECT_ID":"2021-036BL","MEAN_MOTION_DDOT":"0.0000000000000","PERIOD":"95.593","CLASSIFICATION_TYPE":"U","TLE_LINE2":"2 48334  53.0595 241.4587 0000976  48.7824 311.3249 15.06393273 21608","LAUNCH_DATE":"2021-04-29","GP_ID":"184852579","COUNTRY_CODE":"US","MEAN_MOTION":"15.06393273","SEMIMAJOR_AXIS":"6925.369"},{"PERIAPSIS":"546.475","MEAN_ANOMALY":"298.8798","BSTAR":"0.00005099700000","CENTER_NAME":"EARTH","FILE":"3117438","MEAN_MOTION_DOT":"0.00000478","REV_AT_EPOCH":"2164","EPHEMERIS_TYPE":"0","DECAY_DATE":null,"INCLINATION":"53.0601","TIME_SYSTEM":"UTC","NORAD_CAT_ID":"48335","ECCENTRICITY":"0.00010680","EPOCH":"2021-09-16T22:35:51.629856","ELEMENT_SET_NO":"999","SEMIMAJOR_AXIS":"6925.350","GP_ID":"184853324","MEAN_MOTION":"15.06399629","COUNTRY_CODE":"US","RCS_SIZE":"LARGE","MEAN_ELEMENT_THEORY":"SGP4","OBJECT_ID":"2021-036BM","MEAN_MOTION_DDOT":"0.0000000000000","PERIOD":"95.592","CLASSIFICATION_TYPE":"U","TLE_LINE2":"2 48335  53.0601 240.2777 0001068  61.2298 298.8798 15.06399629 21646","LAUNCH_DATE":"2021-04-29","RA_OF_ASC_NODE":"240.2777","OBJECT_TYPE":"PAYLOAD","ARG_OF_PERICENTER":"61.2298","OBJECT_NAME":"STARLINK-2441","TLE_LINE1":"1 48335U 21036BM  21259.94156979  .00000478  00000-0  50997-4 0  9997","APOAPSIS":"547.954","SITE":"AFETR","REF_FRAME":"TEME"}];
